{"type":"FeatureCollection","bruto_m2":596539,"escenarios":[{"m2":280,"frente":10.37,"fondo":27,"lotes":1215,"vendible_m2":340200,"pct_vendible":57.0,"vial_pct":27.7,"verde_pct":15.3,"precio_lote_m2":3440,"precio_lote":963200,"venta":1170288000,"costo":952171719,"margen":218116281,"margen_m2_bruto":366,"roi":22.9,"nogales_por_lote":1.9},{"m2":285,"frente":10.56,"fondo":27,"lotes":1189,"vendible_m2":338865,"pct_vendible":56.8,"vial_pct":27.7,"verde_pct":15.5,"precio_lote_m2":3430,"precio_lote":977550,"venta":1162306950,"costo":951514125,"margen":210792825,"margen_m2_bruto":353,"roi":22.2,"nogales_por_lote":2.0},{"m2":290,"frente":10.74,"fondo":27,"lotes":1168,"vendible_m2":338720,"pct_vendible":56.8,"vial_pct":27.7,"verde_pct":15.5,"precio_lote_m2":3420,"precio_lote":991800,"venta":1158422400,"costo":951461564,"margen":206960836,"margen_m2_bruto":347,"roi":21.8,"nogales_por_lote":2.0},{"m2":295,"frente":10.93,"fondo":27,"lotes":1153,"vendible_m2":340135,"pct_vendible":57.0,"vial_pct":27.6,"verde_pct":15.4,"precio_lote_m2":3410,"precio_lote":1005950,"venta":1159860350,"costo":950099859,"margen":209760491,"margen_m2_bruto":352,"roi":22.1,"nogales_por_lote":2.0},{"m2":300,"frente":10.0,"fondo":30,"lotes":1130,"vendible_m2":339000,"pct_vendible":56.8,"vial_pct":26.6,"verde_pct":16.6,"precio_lote_m2":3400,"precio_lote":1020000,"venta":1152600000,"costo":941108470,"margen":211491530,"margen_m2_bruto":355,"roi":22.5,"nogales_por_lote":2.1},{"m2":305,"frente":11.3,"fondo":27,"lotes":1108,"vendible_m2":337940,"pct_vendible":56.7,"vial_pct":27.7,"verde_pct":15.6,"precio_lote_m2":3390,"precio_lote":1033950,"venta":1145616600,"costo":949692992,"margen":195923608,"margen_m2_bruto":328,"roi":20.6,"nogales_por_lote":2.1},{"m2":310,"frente":10.33,"fondo":30,"lotes":1092,"vendible_m2":338520,"pct_vendible":56.8,"vial_pct":26.5,"verde_pct":16.7,"precio_lote_m2":3380,"precio_lote":1047800,"venta":1144197600,"costo":939383298,"margen":204814302,"margen_m2_bruto":343,"roi":21.8,"nogales_por_lote":2.2},{"m2":315,"frente":11.67,"fondo":27,"lotes":1075,"vendible_m2":338625,"pct_vendible":56.8,"vial_pct":27.5,"verde_pct":15.7,"precio_lote_m2":3370,"precio_lote":1061550,"venta":1141166250,"costo":947645436,"margen":193520814,"margen_m2_bruto":324,"roi":20.4,"nogales_por_lote":2.2},{"m2":320,"frente":11.85,"fondo":27,"lotes":1056,"vendible_m2":337920,"pct_vendible":56.7,"vial_pct":27.7,"verde_pct":15.7,"precio_lote_m2":3360,"precio_lote":1075200,"venta":1135411200,"costo":947986503,"margen":187424697,"margen_m2_bruto":314,"roi":19.8,"nogales_por_lote":2.2},{"m2":325,"frente":12.04,"fondo":27,"lotes":1042,"vendible_m2":338650,"pct_vendible":56.8,"vial_pct":27.7,"verde_pct":15.5,"precio_lote_m2":3350,"precio_lote":1088750,"venta":1134477500,"costo":948060356,"margen":186417144,"margen_m2_bruto":312,"roi":19.7,"nogales_por_lote":2.3},{"m2":330,"frente":11.0,"fondo":30,"lotes":1024,"vendible_m2":337920,"pct_vendible":56.7,"vial_pct":26.5,"verde_pct":16.8,"precio_lote_m2":3340,"precio_lote":1102200,"venta":1128652800,"costo":937551485,"margen":191101315,"margen_m2_bruto":320,"roi":20.4,"nogales_por_lote":2.3}],"barrido":[{"m2":280,"frente":14.0,"fondo":20,"lotes":1110,"vendible_m2":310800,"pct_vendible":52.1,"vial_pct":31.5,"verde_pct":16.4,"precio_lote_m2":3440,"precio_lote":963200,"venta":1069152000,"costo":972081399,"margen":97070601,"margen_m2_bruto":163,"roi":10.0,"nogales_por_lote":1.9},{"m2":280,"frente":13.33,"fondo":21,"lotes":1136,"vendible_m2":318080,"pct_vendible":53.3,"vial_pct":30.9,"verde_pct":15.8,"precio_lote_m2":3440,"precio_lote":963200,"venta":1094195200,"costo":969949384,"margen":124245816,"margen_m2_bruto":208,"roi":12.8,"nogales_por_lote":1.9},{"m2":280,"frente":12.73,"fondo":22,"lotes":1161,"vendible_m2":325080,"pct_vendible":54.5,"vial_pct":30.2,"verde_pct":15.3,"precio_lote_m2":3440,"precio_lote":963200,"venta":1118275200,"costo":967462493,"margen":150812707,"margen_m2_bruto":253,"roi":15.6,"nogales_por_lote":1.9},{"m2":280,"frente":12.17,"fondo":23,"lotes":1183,"vendible_m2":331240,"pct_vendible":55.5,"vial_pct":29.0,"verde_pct":15.4,"precio_lote_m2":3440,"precio_lote":963200,"venta":1139465600,"costo":960013843,"margen":179451757,"margen_m2_bruto":301,"roi":18.7,"nogales_por_lote":1.9},{"m2":280,"frente":11.67,"fondo":24,"lotes":1139,"vendible_m2":318920,"pct_vendible":53.5,"vial_pct":27.9,"verde_pct":18.6,"precio_lote_m2":3440,"precio_lote":963200,"venta":1097084800,"costo":945821647,"margen":151263153,"margen_m2_bruto":254,"roi":16.0,"nogales_por_lote":1.9},{"m2":280,"frente":11.2,"fondo":25,"lotes":1157,"vendible_m2":323960,"pct_vendible":54.3,"vial_pct":28.0,"verde_pct":17.7,"precio_lote_m2":3440,"precio_lote":963200,"venta":1114422400,"costo":948232660,"margen":166189740,"margen_m2_bruto":279,"roi":17.5,"nogales_por_lote":1.9},{"m2":280,"frente":10.77,"fondo":26,"lotes":1186,"vendible_m2":332080,"pct_vendible":55.7,"vial_pct":27.9,"verde_pct":16.4,"precio_lote_m2":3440,"precio_lote":963200,"venta":1142355200,"costo":951018183,"margen":191337017,"margen_m2_bruto":321,"roi":20.1,"nogales_por_lote":1.9},{"m2":280,"frente":10.37,"fondo":27,"lotes":1215,"vendible_m2":340200,"pct_vendible":57.0,"vial_pct":27.7,"verde_pct":15.3,"precio_lote_m2":3440,"precio_lote":963200,"venta":1170288000,"costo":952171719,"margen":218116281,"margen_m2_bruto":366,"roi":22.9,"nogales_por_lote":1.9},{"m2":280,"frente":10.0,"fondo":28,"lotes":1171,"vendible_m2":327880,"pct_vendible":55.0,"vial_pct":27.4,"verde_pct":17.6,"precio_lote_m2":3440,"precio_lote":963200,"venta":1127907200,"costo":945267304,"margen":182639896,"margen_m2_bruto":306,"roi":19.3,"nogales_por_lote":1.9},{"m2":285,"frente":14.25,"fondo":20,"lotes":1088,"vendible_m2":310080,"pct_vendible":52.0,"vial_pct":31.6,"verde_pct":16.5,"precio_lote_m2":3430,"precio_lote":977550,"venta":1063574400,"costo":971988282,"margen":91586118,"margen_m2_bruto":154,"roi":9.4,"nogales_por_lote":2.0},{"m2":285,"frente":13.57,"fondo":21,"lotes":1128,"vendible_m2":321480,"pct_vendible":53.9,"vial_pct":30.6,"verde_pct":15.6,"precio_lote_m2":3430,"precio_lote":977550,"venta":1102676400,"costo":968253370,"margen":134423030,"margen_m2_bruto":225,"roi":13.9,"nogales_por_lote":2.0},{"m2":285,"frente":12.95,"fondo":22,"lotes":1141,"vendible_m2":325185,"pct_vendible":54.5,"vial_pct":30.2,"verde_pct":15.2,"precio_lote_m2":3430,"precio_lote":977550,"venta":1115384550,"costo":967160966,"margen":148223584,"margen_m2_bruto":248,"roi":15.3,"nogales_por_lote":2.0},{"m2":285,"frente":12.39,"fondo":23,"lotes":1166,"vendible_m2":332310,"pct_vendible":55.7,"vial_pct":29.0,"verde_pct":15.3,"precio_lote_m2":3430,"precio_lote":977550,"venta":1139823300,"costo":959488250,"margen":180335050,"margen_m2_bruto":302,"roi":18.8,"nogales_por_lote":2.0},{"m2":285,"frente":11.88,"fondo":24,"lotes":1120,"vendible_m2":319200,"pct_vendible":53.5,"vial_pct":28.1,"verde_pct":18.4,"precio_lote_m2":3430,"precio_lote":977550,"venta":1094856000,"costo":946469887,"margen":148386113,"margen_m2_bruto":249,"roi":15.7,"nogales_por_lote":2.0},{"m2":285,"frente":11.4,"fondo":25,"lotes":1134,"vendible_m2":323190,"pct_vendible":54.2,"vial_pct":28.1,"verde_pct":17.7,"precio_lote_m2":3430,"precio_lote":977550,"venta":1108541700,"costo":948199774,"margen":160341926,"margen_m2_bruto":269,"roi":16.9,"nogales_por_lote":2.0},{"m2":285,"frente":10.96,"fondo":26,"lotes":1181,"vendible_m2":336585,"pct_vendible":56.4,"vial_pct":27.7,"verde_pct":15.9,"precio_lote_m2":3430,"precio_lote":977550,"venta":1154486550,"costo":950378344,"margen":204108206,"margen_m2_bruto":342,"roi":21.5,"nogales_por_lote":2.0},{"m2":285,"frente":10.56,"fondo":27,"lotes":1189,"vendible_m2":338865,"pct_vendible":56.8,"vial_pct":27.7,"verde_pct":15.5,"precio_lote_m2":3430,"precio_lote":977550,"venta":1162306950,"costo":951514125,"margen":210792825,"margen_m2_bruto":353,"roi":22.2,"nogales_por_lote":2.0},{"m2":285,"frente":10.18,"fondo":28,"lotes":1150,"vendible_m2":327750,"pct_vendible":54.9,"vial_pct":27.4,"verde_pct":17.7,"precio_lote_m2":3430,"precio_lote":977550,"venta":1124182500,"costo":944453673,"margen":179728827,"margen_m2_bruto":301,"roi":19.0,"nogales_por_lote":2.0},{"m2":290,"frente":13.81,"fondo":21,"lotes":1105,"vendible_m2":320450,"pct_vendible":53.7,"vial_pct":30.9,"verde_pct":15.4,"precio_lote_m2":3420,"precio_lote":991800,"venta":1095939000,"costo":970074951,"margen":125864049,"margen_m2_bruto":211,"roi":13.0,"nogales_por_lote":2.0},{"m2":290,"frente":13.18,"fondo":22,"lotes":1127,"vendible_m2":326830,"pct_vendible":54.8,"vial_pct":30.3,"verde_pct":14.9,"precio_lote_m2":3420,"precio_lote":991800,"venta":1117758600,"costo":967923554,"margen":149835046,"margen_m2_bruto":251,"roi":15.5,"nogales_por_lote":2.0},{"m2":290,"frente":12.61,"fondo":23,"lotes":1147,"vendible_m2":332630,"pct_vendible":55.8,"vial_pct":29.0,"verde_pct":15.3,"precio_lote_m2":3420,"precio_lote":991800,"venta":1137594600,"costo":959273374,"margen":178321226,"margen_m2_bruto":299,"roi":18.6,"nogales_por_lote":2.0},{"m2":290,"frente":12.08,"fondo":24,"lotes":1099,"vendible_m2":318710,"pct_vendible":53.4,"vial_pct":28.1,"verde_pct":18.4,"precio_lote_m2":3420,"precio_lote":991800,"venta":1089988200,"costo":946403606,"margen":143584594,"margen_m2_bruto":241,"roi":15.2,"nogales_por_lote":2.0},{"m2":290,"frente":11.6,"fondo":25,"lotes":1125,"vendible_m2":326250,"pct_vendible":54.7,"vial_pct":28.0,"verde_pct":17.3,"precio_lote_m2":3420,"precio_lote":991800,"venta":1115775000,"costo":948211860,"margen":167563140,"margen_m2_bruto":281,"roi":17.7,"nogales_por_lote":2.0},{"m2":290,"frente":11.15,"fondo":26,"lotes":1157,"vendible_m2":335530,"pct_vendible":56.3,"vial_pct":27.8,"verde_pct":15.9,"precio_lote_m2":3420,"precio_lote":991800,"venta":1147512600,"costo":950880117,"margen":196632483,"margen_m2_bruto":330,"roi":20.7,"nogales_por_lote":2.0},{"m2":290,"frente":10.74,"fondo":27,"lotes":1168,"vendible_m2":338720,"pct_vendible":56.8,"vial_pct":27.7,"verde_pct":15.5,"precio_lote_m2":3420,"precio_lote":991800,"venta":1158422400,"costo":951461564,"margen":206960836,"margen_m2_bruto":347,"roi":21.8,"nogales_por_lote":2.0},{"m2":290,"frente":10.36,"fondo":28,"lotes":1136,"vendible_m2":329440,"pct_vendible":55.2,"vial_pct":27.4,"verde_pct":17.4,"precio_lote_m2":3420,"precio_lote":991800,"venta":1126684800,"costo":944435225,"margen":182249575,"margen_m2_bruto":306,"roi":19.3,"nogales_por_lote":2.0},{"m2":290,"frente":10.0,"fondo":29,"lotes":1157,"vendible_m2":335530,"pct_vendible":56.3,"vial_pct":27.0,"verde_pct":16.7,"precio_lote_m2":3420,"precio_lote":991800,"venta":1147512600,"costo":944178945,"margen":203333655,"margen_m2_bruto":341,"roi":21.5,"nogales_por_lote":2.0},{"m2":295,"frente":14.05,"fondo":21,"lotes":1084,"vendible_m2":319780,"pct_vendible":53.6,"vial_pct":30.9,"verde_pct":15.5,"precio_lote_m2":3410,"precio_lote":1005950,"venta":1090449800,"costo":969550646,"margen":120899154,"margen_m2_bruto":203,"roi":12.5,"nogales_por_lote":2.0},{"m2":295,"frente":13.41,"fondo":22,"lotes":1104,"vendible_m2":325680,"pct_vendible":54.6,"vial_pct":30.2,"verde_pct":15.2,"precio_lote_m2":3410,"precio_lote":1005950,"venta":1110568800,"costo":966176877,"margen":144391923,"margen_m2_bruto":242,"roi":14.9,"nogales_por_lote":2.0},{"m2":295,"frente":12.83,"fondo":23,"lotes":1125,"vendible_m2":331875,"pct_vendible":55.6,"vial_pct":28.9,"verde_pct":15.4,"precio_lote_m2":3410,"precio_lote":1005950,"venta":1131693750,"costo":958248476,"margen":173445274,"margen_m2_bruto":291,"roi":18.1,"nogales_por_lote":2.0},{"m2":295,"frente":12.29,"fondo":24,"lotes":1073,"vendible_m2":316535,"pct_vendible":53.1,"vial_pct":28.1,"verde_pct":18.8,"precio_lote_m2":3410,"precio_lote":1005950,"venta":1079384350,"costo":945374159,"margen":134010191,"margen_m2_bruto":225,"roi":14.2,"nogales_por_lote":2.0},{"m2":295,"frente":11.8,"fondo":25,"lotes":1094,"vendible_m2":322730,"pct_vendible":54.1,"vial_pct":28.0,"verde_pct":17.9,"precio_lote_m2":3410,"precio_lote":1005950,"venta":1100509300,"costo":946463135,"margen":154046165,"margen_m2_bruto":258,"roi":16.3,"nogales_por_lote":2.0},{"m2":295,"frente":11.35,"fondo":26,"lotes":1133,"vendible_m2":334235,"pct_vendible":56.0,"vial_pct":27.9,"verde_pct":16.0,"precio_lote_m2":3410,"precio_lote":1005950,"venta":1139741350,"costo":950783996,"margen":188957354,"margen_m2_bruto":317,"roi":19.9,"nogales_por_lote":2.0},{"m2":295,"frente":10.93,"fondo":27,"lotes":1153,"vendible_m2":340135,"pct_vendible":57.0,"vial_pct":27.6,"verde_pct":15.4,"precio_lote_m2":3410,"precio_lote":1005950,"venta":1159860350,"costo":950099859,"margen":209760491,"margen_m2_bruto":352,"roi":22.1,"nogales_por_lote":2.0},{"m2":295,"frente":10.54,"fondo":28,"lotes":1109,"vendible_m2":327155,"pct_vendible":54.8,"vial_pct":27.4,"verde_pct":17.8,"precio_lote_m2":3410,"precio_lote":1005950,"venta":1115598550,"costo":943302236,"margen":172296314,"margen_m2_bruto":289,"roi":18.3,"nogales_por_lote":2.0},{"m2":295,"frente":10.17,"fondo":29,"lotes":1133,"vendible_m2":334235,"pct_vendible":56.0,"vial_pct":27.0,"verde_pct":17.0,"precio_lote_m2":3410,"precio_lote":1005950,"venta":1139741350,"costo":942841416,"margen":196899934,"margen_m2_bruto":330,"roi":20.9,"nogales_por_lote":2.0},{"m2":300,"frente":14.29,"fondo":21,"lotes":1060,"vendible_m2":318000,"pct_vendible":53.3,"vial_pct":30.9,"verde_pct":15.8,"precio_lote_m2":3400,"precio_lote":1020000,"venta":1081200000,"costo":968807031,"margen":112392969,"margen_m2_bruto":188,"roi":11.6,"nogales_por_lote":2.1},{"m2":300,"frente":13.64,"fondo":22,"lotes":1077,"vendible_m2":323100,"pct_vendible":54.2,"vial_pct":30.3,"verde_pct":15.6,"precio_lote_m2":3400,"precio_lote":1020000,"venta":1098540000,"costo":965311402,"margen":133228598,"margen_m2_bruto":223,"roi":13.8,"nogales_por_lote":2.1},{"m2":300,"frente":13.04,"fondo":23,"lotes":1103,"vendible_m2":330900,"pct_vendible":55.5,"vial_pct":29.0,"verde_pct":15.5,"precio_lote_m2":3400,"precio_lote":1020000,"venta":1125060000,"costo":958041952,"margen":167018048,"margen_m2_bruto":280,"roi":17.4,"nogales_por_lote":2.1},{"m2":300,"frente":12.5,"fondo":24,"lotes":1063,"vendible_m2":318900,"pct_vendible":53.5,"vial_pct":27.9,"verde_pct":18.6,"precio_lote_m2":3400,"precio_lote":1020000,"venta":1084260000,"costo":944282671,"margen":139977329,"margen_m2_bruto":235,"roi":14.8,"nogales_por_lote":2.1},{"m2":300,"frente":12.0,"fondo":25,"lotes":1080,"vendible_m2":324000,"pct_vendible":54.3,"vial_pct":28.0,"verde_pct":17.7,"precio_lote_m2":3400,"precio_lote":1020000,"venta":1101600000,"costo":946693972,"margen":154906028,"margen_m2_bruto":260,"roi":16.4,"nogales_por_lote":2.1},{"m2":300,"frente":11.54,"fondo":26,"lotes":1114,"vendible_m2":334200,"pct_vendible":56.0,"vial_pct":27.9,"verde_pct":16.1,"precio_lote_m2":3400,"precio_lote":1020000,"venta":1136280000,"costo":950043301,"margen":186236699,"margen_m2_bruto":312,"roi":19.6,"nogales_por_lote":2.1},{"m2":300,"frente":11.11,"fondo":27,"lotes":1127,"vendible_m2":338100,"pct_vendible":56.7,"vial_pct":27.6,"verde_pct":15.7,"precio_lote_m2":3400,"precio_lote":1020000,"venta":1149540000,"costo":949604207,"margen":199935793,"margen_m2_bruto":335,"roi":21.1,"nogales_por_lote":2.1},{"m2":300,"frente":10.71,"fondo":28,"lotes":1092,"vendible_m2":327600,"pct_vendible":54.9,"vial_pct":27.4,"verde_pct":17.6,"precio_lote_m2":3400,"precio_lote":1020000,"venta":1113840000,"costo":943634498,"margen":170205502,"margen_m2_bruto":285,"roi":18.0,"nogales_por_lote":2.1},{"m2":300,"frente":10.34,"fondo":29,"lotes":1118,"vendible_m2":335400,"pct_vendible":56.2,"vial_pct":26.9,"verde_pct":16.8,"precio_lote_m2":3400,"precio_lote":1020000,"venta":1140360000,"costo":942632624,"margen":197727376,"margen_m2_bruto":331,"roi":21.0,"nogales_por_lote":2.1},{"m2":300,"frente":10.0,"fondo":30,"lotes":1130,"vendible_m2":339000,"pct_vendible":56.8,"vial_pct":26.6,"verde_pct":16.6,"precio_lote_m2":3400,"precio_lote":1020000,"venta":1152600000,"costo":941108470,"margen":211491530,"margen_m2_bruto":355,"roi":22.5,"nogales_por_lote":2.1},{"m2":305,"frente":14.52,"fondo":21,"lotes":1051,"vendible_m2":320555,"pct_vendible":53.7,"vial_pct":30.8,"verde_pct":15.4,"precio_lote_m2":3390,"precio_lote":1033950,"venta":1086681450,"costo":968639079,"margen":118042371,"margen_m2_bruto":198,"roi":12.2,"nogales_por_lote":2.1},{"m2":305,"frente":13.86,"fondo":22,"lotes":1058,"vendible_m2":322690,"pct_vendible":54.1,"vial_pct":30.2,"verde_pct":15.7,"precio_lote_m2":3390,"precio_lote":1033950,"venta":1093919100,"costo":964428450,"margen":129490650,"margen_m2_bruto":217,"roi":13.4,"nogales_por_lote":2.1},{"m2":305,"frente":13.26,"fondo":23,"lotes":1083,"vendible_m2":330315,"pct_vendible":55.4,"vial_pct":29.0,"verde_pct":15.6,"precio_lote_m2":3390,"precio_lote":1033950,"venta":1119767850,"costo":957492413,"margen":162275437,"margen_m2_bruto":272,"roi":16.9,"nogales_por_lote":2.1},{"m2":305,"frente":12.71,"fondo":24,"lotes":1038,"vendible_m2":316590,"pct_vendible":53.1,"vial_pct":28.1,"verde_pct":18.9,"precio_lote_m2":3390,"precio_lote":1033950,"venta":1073240100,"costo":943981058,"margen":129259042,"margen_m2_bruto":217,"roi":13.7,"nogales_por_lote":2.1},{"m2":305,"frente":12.2,"fondo":25,"lotes":1057,"vendible_m2":322385,"pct_vendible":54.0,"vial_pct":28.1,"verde_pct":17.9,"precio_lote_m2":3390,"precio_lote":1033950,"venta":1092885150,"costo":946329357,"margen":146555793,"margen_m2_bruto":246,"roi":15.5,"nogales_por_lote":2.1},{"m2":305,"frente":11.73,"fondo":26,"lotes":1093,"vendible_m2":333365,"pct_vendible":55.9,"vial_pct":27.9,"verde_pct":16.3,"precio_lote_m2":3390,"precio_lote":1033950,"venta":1130107350,"costo":948994924,"margen":181112426,"margen_m2_bruto":304,"roi":19.1,"nogales_por_lote":2.1},{"m2":305,"frente":11.3,"fondo":27,"lotes":1108,"vendible_m2":337940,"pct_vendible":56.7,"vial_pct":27.7,"verde_pct":15.6,"precio_lote_m2":3390,"precio_lote":1033950,"venta":1145616600,"costo":949692992,"margen":195923608,"margen_m2_bruto":328,"roi":20.6,"nogales_por_lote":2.1},{"m2":305,"frente":10.89,"fondo":28,"lotes":1074,"vendible_m2":327570,"pct_vendible":54.9,"vial_pct":27.3,"verde_pct":17.8,"precio_lote_m2":3390,"precio_lote":1033950,"venta":1110462300,"costo":942090041,"margen":168372259,"margen_m2_bruto":282,"roi":17.9,"nogales_por_lote":2.1},{"m2":305,"frente":10.52,"fondo":29,"lotes":1096,"vendible_m2":334280,"pct_vendible":56.0,"vial_pct":27.0,"verde_pct":17.0,"precio_lote_m2":3390,"precio_lote":1033950,"venta":1133209200,"costo":941874500,"margen":191334700,"margen_m2_bruto":321,"roi":20.3,"nogales_por_lote":2.1},{"m2":305,"frente":10.17,"fondo":30,"lotes":1104,"vendible_m2":336720,"pct_vendible":56.5,"vial_pct":26.5,"verde_pct":17.0,"precio_lote_m2":3390,"precio_lote":1033950,"venta":1141480800,"costo":939400491,"margen":202080309,"margen_m2_bruto":339,"roi":21.5,"nogales_por_lote":2.1},{"m2":310,"frente":14.76,"fondo":21,"lotes":1033,"vendible_m2":320230,"pct_vendible":53.7,"vial_pct":30.5,"verde_pct":15.8,"precio_lote_m2":3380,"precio_lote":1047800,"venta":1082377400,"costo":965140485,"margen":117236915,"margen_m2_bruto":197,"roi":12.1,"nogales_por_lote":2.2},{"m2":310,"frente":14.09,"fondo":22,"lotes":1051,"vendible_m2":325810,"pct_vendible":54.6,"vial_pct":30.3,"verde_pct":15.1,"precio_lote_m2":3380,"precio_lote":1047800,"venta":1101237800,"costo":965639534,"margen":135598266,"margen_m2_bruto":227,"roi":14.0,"nogales_por_lote":2.2},{"m2":310,"frente":13.48,"fondo":23,"lotes":1072,"vendible_m2":332320,"pct_vendible":55.7,"vial_pct":28.8,"verde_pct":15.5,"precio_lote_m2":3380,"precio_lote":1047800,"venta":1123241600,"costo":956062821,"margen":167178779,"margen_m2_bruto":280,"roi":17.5,"nogales_por_lote":2.2},{"m2":310,"frente":12.92,"fondo":24,"lotes":1025,"vendible_m2":317750,"pct_vendible":53.3,"vial_pct":28.1,"verde_pct":18.7,"precio_lote_m2":3380,"precio_lote":1047800,"venta":1073995000,"costo":944077730,"margen":129917270,"margen_m2_bruto":218,"roi":13.8,"nogales_por_lote":2.2},{"m2":310,"frente":12.4,"fondo":25,"lotes":1042,"vendible_m2":323020,"pct_vendible":54.2,"vial_pct":28.0,"verde_pct":17.9,"precio_lote_m2":3380,"precio_lote":1047800,"venta":1091807600,"costo":945571296,"margen":146236304,"margen_m2_bruto":245,"roi":15.5,"nogales_por_lote":2.2},{"m2":310,"frente":11.92,"fondo":26,"lotes":1080,"vendible_m2":334800,"pct_vendible":56.1,"vial_pct":27.8,"verde_pct":16.0,"precio_lote_m2":3380,"precio_lote":1047800,"venta":1131624000,"costo":949011166,"margen":182612834,"margen_m2_bruto":306,"roi":19.2,"nogales_por_lote":2.2},{"m2":310,"frente":11.48,"fondo":27,"lotes":1091,"vendible_m2":338210,"pct_vendible":56.7,"vial_pct":27.7,"verde_pct":15.6,"precio_lote_m2":3380,"precio_lote":1047800,"venta":1143149800,"costo":949584242,"margen":193565558,"margen_m2_bruto":324,"roi":20.4,"nogales_por_lote":2.2},{"m2":310,"frente":11.07,"fondo":28,"lotes":1055,"vendible_m2":327050,"pct_vendible":54.8,"vial_pct":27.3,"verde_pct":17.8,"precio_lote_m2":3380,"precio_lote":1047800,"venta":1105429000,"costo":941846845,"margen":163582155,"margen_m2_bruto":274,"roi":17.4,"nogales_por_lote":2.2},{"m2":310,"frente":10.69,"fondo":29,"lotes":1078,"vendible_m2":334180,"pct_vendible":56.0,"vial_pct":27.0,"verde_pct":16.9,"precio_lote_m2":3380,"precio_lote":1047800,"venta":1129528400,"costo":942082000,"margen":187446400,"margen_m2_bruto":314,"roi":19.9,"nogales_por_lote":2.2},{"m2":310,"frente":10.33,"fondo":30,"lotes":1092,"vendible_m2":338520,"pct_vendible":56.8,"vial_pct":26.5,"verde_pct":16.7,"precio_lote_m2":3380,"precio_lote":1047800,"venta":1144197600,"costo":939383298,"margen":204814302,"margen_m2_bruto":343,"roi":21.8,"nogales_por_lote":2.2},{"m2":315,"frente":15.0,"fondo":21,"lotes":1013,"vendible_m2":319095,"pct_vendible":53.5,"vial_pct":30.9,"verde_pct":15.6,"precio_lote_m2":3370,"precio_lote":1061550,"venta":1075350150,"costo":967688276,"margen":107661874,"margen_m2_bruto":180,"roi":11.1,"nogales_por_lote":2.2},{"m2":315,"frente":14.32,"fondo":22,"lotes":1028,"vendible_m2":323820,"pct_vendible":54.3,"vial_pct":30.3,"verde_pct":15.4,"precio_lote_m2":3370,"precio_lote":1061550,"venta":1091273400,"costo":964735186,"margen":126538214,"margen_m2_bruto":212,"roi":13.1,"nogales_por_lote":2.2},{"m2":315,"frente":13.7,"fondo":23,"lotes":1055,"vendible_m2":332325,"pct_vendible":55.7,"vial_pct":29.0,"verde_pct":15.3,"precio_lote_m2":3370,"precio_lote":1061550,"venta":1119935250,"costo":957106693,"margen":162828557,"margen_m2_bruto":273,"roi":17.0,"nogales_por_lote":2.2},{"m2":315,"frente":13.12,"fondo":24,"lotes":1009,"vendible_m2":317835,"pct_vendible":53.3,"vial_pct":28.2,"verde_pct":18.6,"precio_lote_m2":3370,"precio_lote":1061550,"venta":1071103950,"costo":944489204,"margen":126614746,"margen_m2_bruto":212,"roi":13.4,"nogales_por_lote":2.2},{"m2":315,"frente":12.6,"fondo":25,"lotes":1025,"vendible_m2":322875,"pct_vendible":54.1,"vial_pct":28.0,"verde_pct":17.9,"precio_lote_m2":3370,"precio_lote":1061550,"venta":1088088750,"costo":945096143,"margen":142992607,"margen_m2_bruto":240,"roi":15.1,"nogales_por_lote":2.2},{"m2":315,"frente":12.12,"fondo":26,"lotes":1050,"vendible_m2":330750,"pct_vendible":55.5,"vial_pct":27.9,"verde_pct":16.6,"precio_lote_m2":3370,"precio_lote":1061550,"venta":1114627500,"costo":947578960,"margen":167048540,"margen_m2_bruto":280,"roi":17.6,"nogales_por_lote":2.2},{"m2":315,"frente":11.67,"fondo":27,"lotes":1075,"vendible_m2":338625,"pct_vendible":56.8,"vial_pct":27.5,"verde_pct":15.7,"precio_lote_m2":3370,"precio_lote":1061550,"venta":1141166250,"costo":947645436,"margen":193520814,"margen_m2_bruto":324,"roi":20.4,"nogales_por_lote":2.2},{"m2":315,"frente":11.25,"fondo":28,"lotes":1035,"vendible_m2":326025,"pct_vendible":54.7,"vial_pct":27.4,"verde_pct":18.0,"precio_lote_m2":3370,"precio_lote":1061550,"venta":1098704250,"costo":941333292,"margen":157370958,"margen_m2_bruto":264,"roi":16.7,"nogales_por_lote":2.2},{"m2":315,"frente":10.86,"fondo":29,"lotes":1061,"vendible_m2":334215,"pct_vendible":56.0,"vial_pct":26.9,"verde_pct":17.1,"precio_lote_m2":3370,"precio_lote":1061550,"venta":1126304550,"costo":940721478,"margen":185583072,"margen_m2_bruto":311,"roi":19.7,"nogales_por_lote":2.2},{"m2":315,"frente":10.5,"fondo":30,"lotes":1075,"vendible_m2":338625,"pct_vendible":56.8,"vial_pct":26.5,"verde_pct":16.7,"precio_lote_m2":3370,"precio_lote":1061550,"venta":1141166250,"costo":939050586,"margen":202115664,"margen_m2_bruto":339,"roi":21.5,"nogales_por_lote":2.2},{"m2":320,"frente":14.55,"fondo":22,"lotes":1014,"vendible_m2":324480,"pct_vendible":54.4,"vial_pct":30.2,"verde_pct":15.4,"precio_lote_m2":3360,"precio_lote":1075200,"venta":1090252800,"costo":963552520,"margen":126700280,"margen_m2_bruto":212,"roi":13.1,"nogales_por_lote":2.2},{"m2":320,"frente":13.91,"fondo":23,"lotes":1031,"vendible_m2":329920,"pct_vendible":55.3,"vial_pct":28.9,"verde_pct":15.8,"precio_lote_m2":3360,"precio_lote":1075200,"venta":1108531200,"costo":955443851,"margen":153087349,"margen_m2_bruto":257,"roi":16.0,"nogales_por_lote":2.2},{"m2":320,"frente":13.33,"fondo":24,"lotes":990,"vendible_m2":316800,"pct_vendible":53.1,"vial_pct":28.1,"verde_pct":18.8,"precio_lote_m2":3360,"precio_lote":1075200,"venta":1064448000,"costo":943181152,"margen":121266848,"margen_m2_bruto":203,"roi":12.9,"nogales_por_lote":2.2},{"m2":320,"frente":12.8,"fondo":25,"lotes":1009,"vendible_m2":322880,"pct_vendible":54.1,"vial_pct":28.0,"verde_pct":17.9,"precio_lote_m2":3360,"precio_lote":1075200,"venta":1084876800,"costo":944522502,"margen":140354298,"margen_m2_bruto":235,"roi":14.9,"nogales_por_lote":2.2},{"m2":320,"frente":12.31,"fondo":26,"lotes":1042,"vendible_m2":333440,"pct_vendible":55.9,"vial_pct":27.9,"verde_pct":16.2,"precio_lote_m2":3360,"precio_lote":1075200,"venta":1120358400,"costo":948378567,"margen":171979833,"margen_m2_bruto":288,"roi":18.1,"nogales_por_lote":2.2},{"m2":320,"frente":11.85,"fondo":27,"lotes":1056,"vendible_m2":337920,"pct_vendible":56.7,"vial_pct":27.7,"verde_pct":15.7,"precio_lote_m2":3360,"precio_lote":1075200,"venta":1135411200,"costo":947986503,"margen":187424697,"margen_m2_bruto":314,"roi":19.8,"nogales_por_lote":2.2},{"m2":320,"frente":11.43,"fondo":28,"lotes":1019,"vendible_m2":326080,"pct_vendible":54.7,"vial_pct":27.4,"verde_pct":17.9,"precio_lote_m2":3360,"precio_lote":1075200,"venta":1095628800,"costo":941449154,"margen":154179646,"margen_m2_bruto":258,"roi":16.4,"nogales_por_lote":2.2},{"m2":320,"frente":11.03,"fondo":29,"lotes":1045,"vendible_m2":334400,"pct_vendible":56.1,"vial_pct":26.9,"verde_pct":17.0,"precio_lote_m2":3360,"precio_lote":1075200,"venta":1123584000,"costo":940619504,"margen":182964496,"margen_m2_bruto":307,"roi":19.5,"nogales_por_lote":2.2},{"m2":320,"frente":10.67,"fondo":30,"lotes":1056,"vendible_m2":337920,"pct_vendible":56.7,"vial_pct":26.6,"verde_pct":16.8,"precio_lote_m2":3360,"precio_lote":1075200,"venta":1135411200,"costo":939125234,"margen":196285966,"margen_m2_bruto":329,"roi":20.9,"nogales_por_lote":2.2},{"m2":325,"frente":14.77,"fondo":22,"lotes":1002,"vendible_m2":325650,"pct_vendible":54.6,"vial_pct":29.8,"verde_pct":15.6,"precio_lote_m2":3350,"precio_lote":1088750,"venta":1090927500,"costo":960670225,"margen":130257275,"margen_m2_bruto":218,"roi":13.6,"nogales_por_lote":2.3},{"m2":325,"frente":14.13,"fondo":23,"lotes":1021,"vendible_m2":331825,"pct_vendible":55.6,"vial_pct":29.0,"verde_pct":15.4,"precio_lote_m2":3350,"precio_lote":1088750,"venta":1111613750,"costo":956428402,"margen":155185348,"margen_m2_bruto":260,"roi":16.2,"nogales_por_lote":2.3},{"m2":325,"frente":13.54,"fondo":24,"lotes":985,"vendible_m2":320125,"pct_vendible":53.7,"vial_pct":27.8,"verde_pct":18.5,"precio_lote_m2":3350,"precio_lote":1088750,"venta":1072418750,"costo":941615781,"margen":130802969,"margen_m2_bruto":219,"roi":13.9,"nogales_por_lote":2.3},{"m2":325,"frente":13.0,"fondo":25,"lotes":995,"vendible_m2":323375,"pct_vendible":54.2,"vial_pct":28.0,"verde_pct":17.8,"precio_lote_m2":3350,"precio_lote":1088750,"venta":1083306250,"costo":944792769,"margen":138513481,"margen_m2_bruto":232,"roi":14.7,"nogales_por_lote":2.3},{"m2":325,"frente":12.5,"fondo":26,"lotes":1030,"vendible_m2":334750,"pct_vendible":56.1,"vial_pct":27.7,"verde_pct":16.2,"precio_lote_m2":3350,"precio_lote":1088750,"venta":1121412500,"costo":946855382,"margen":174557118,"margen_m2_bruto":293,"roi":18.4,"nogales_por_lote":2.3},{"m2":325,"frente":12.04,"fondo":27,"lotes":1042,"vendible_m2":338650,"pct_vendible":56.8,"vial_pct":27.7,"verde_pct":15.5,"precio_lote_m2":3350,"precio_lote":1088750,"venta":1134477500,"costo":948060356,"margen":186417144,"margen_m2_bruto":312,"roi":19.7,"nogales_por_lote":2.3},{"m2":325,"frente":11.61,"fondo":28,"lotes":1011,"vendible_m2":328575,"pct_vendible":55.1,"vial_pct":27.3,"verde_pct":17.6,"precio_lote_m2":3350,"precio_lote":1088750,"venta":1100726250,"costo":941019838,"margen":159706412,"margen_m2_bruto":268,"roi":17.0,"nogales_por_lote":2.3},{"m2":325,"frente":11.21,"fondo":29,"lotes":1025,"vendible_m2":333125,"pct_vendible":55.9,"vial_pct":26.9,"verde_pct":17.2,"precio_lote_m2":3350,"precio_lote":1088750,"venta":1115968750,"costo":939749657,"margen":176219093,"margen_m2_bruto":295,"roi":18.8,"nogales_por_lote":2.3},{"m2":325,"frente":10.83,"fondo":30,"lotes":1042,"vendible_m2":338650,"pct_vendible":56.8,"vial_pct":26.5,"verde_pct":16.7,"precio_lote_m2":3350,"precio_lote":1088750,"venta":1134477500,"costo":938275730,"margen":196201770,"margen_m2_bruto":329,"roi":20.9,"nogales_por_lote":2.3},{"m2":330,"frente":15.0,"fondo":22,"lotes":983,"vendible_m2":324390,"pct_vendible":54.4,"vial_pct":30.2,"verde_pct":15.4,"precio_lote_m2":3340,"precio_lote":1102200,"venta":1083462600,"costo":963339967,"margen":120122633,"margen_m2_bruto":201,"roi":12.5,"nogales_por_lote":2.3},{"m2":330,"frente":14.35,"fondo":23,"lotes":1003,"vendible_m2":330990,"pct_vendible":55.5,"vial_pct":29.0,"verde_pct":15.5,"precio_lote_m2":3340,"precio_lote":1102200,"venta":1105506600,"costo":955835128,"margen":149671472,"margen_m2_bruto":251,"roi":15.7,"nogales_por_lote":2.3},{"m2":330,"frente":13.75,"fondo":24,"lotes":965,"vendible_m2":318450,"pct_vendible":53.4,"vial_pct":28.1,"verde_pct":18.5,"precio_lote_m2":3340,"precio_lote":1102200,"venta":1063623000,"costo":942849600,"margen":120773400,"margen_m2_bruto":202,"roi":12.8,"nogales_por_lote":2.3},{"m2":330,"frente":13.2,"fondo":25,"lotes":984,"vendible_m2":324720,"pct_vendible":54.4,"vial_pct":28.1,"verde_pct":17.5,"precio_lote_m2":3340,"precio_lote":1102200,"venta":1084564800,"costo":945296895,"margen":139267905,"margen_m2_bruto":233,"roi":14.7,"nogales_por_lote":2.3},{"m2":330,"frente":12.69,"fondo":26,"lotes":1008,"vendible_m2":332640,"pct_vendible":55.8,"vial_pct":27.8,"verde_pct":16.4,"precio_lote_m2":3340,"precio_lote":1102200,"venta":1111017600,"costo":946665129,"margen":164352471,"margen_m2_bruto":276,"roi":17.4,"nogales_por_lote":2.3},{"m2":330,"frente":12.22,"fondo":27,"lotes":1022,"vendible_m2":337260,"pct_vendible":56.5,"vial_pct":27.7,"verde_pct":15.7,"precio_lote_m2":3340,"precio_lote":1102200,"venta":1126448400,"costo":947670883,"margen":178777517,"margen_m2_bruto":300,"roi":18.9,"nogales_por_lote":2.3},{"m2":330,"frente":11.79,"fondo":28,"lotes":992,"vendible_m2":327360,"pct_vendible":54.9,"vial_pct":27.4,"verde_pct":17.8,"precio_lote_m2":3340,"precio_lote":1102200,"venta":1093382400,"costo":940514492,"margen":152867908,"margen_m2_bruto":256,"roi":16.3,"nogales_por_lote":2.3},{"m2":330,"frente":11.38,"fondo":29,"lotes":1011,"vendible_m2":333630,"pct_vendible":55.9,"vial_pct":27.0,"verde_pct":17.0,"precio_lote_m2":3340,"precio_lote":1102200,"venta":1114324200,"costo":940284675,"margen":174039525,"margen_m2_bruto":292,"roi":18.5,"nogales_por_lote":2.3},{"m2":330,"frente":11.0,"fondo":30,"lotes":1024,"vendible_m2":337920,"pct_vendible":56.7,"vial_pct":26.5,"verde_pct":16.8,"precio_lote_m2":3340,"precio_lote":1102200,"venta":1128652800,"costo":937551485,"margen":191101315,"margen_m2_bruto":320,"roi":20.4,"nogales_por_lote":2.3}],"amenidades":{"pista_m":3192,"parque_m2":18000,"comunal_m2":8000,"bulevar_m2":46904},"features":[{"type":"Feature","properties":{"capa":"limite"},"geometry":{"type":"Polygon","coordinates":[[[-103.364376,25.558278],[-103.368099,25.558288],[-103.368678,25.55852],[-103.369483,25.560707],[-103.363646,25.564114],[-103.359151,25.56604],[-103.358099,25.566224],[-103.357713,25.565992],[-103.357531,25.564569],[-103.357606,25.561859],[-103.364376,25.558278]]]}},{"type":"Feature","properties":{"capa":"calle_perimetral"},"geometry":{"type":"Polygon","coordinates":[[[-103.368099,25.558288],[-103.368678,25.55852],[-103.369483,25.560707],[-103.363646,25.564114],[-103.359151,25.56604],[-103.358099,25.566224],[-103.357713,25.565992],[-103.357531,25.564569],[-103.357606,25.561859],[-103.364376,25.558278],[-103.368099,25.558288]]]}},{"type":"Feature","properties":{"capa":"pista"},"geometry":{"type":"Polygon","coordinates":[[[-103.368073,25.558396],[-103.368582,25.5586],[-103.36934,25.560662],[-103.363588,25.564019],[-103.359113,25.565937],[-103.358125,25.566109],[-103.357825,25.565929],[-103.35765,25.564564],[-103.357724,25.561922],[-103.364408,25.558386],[-103.368073,25.558396]]]}},{"type":"Feature","properties":{"capa":"corredor"},"geometry":{"type":"Polygon","coordinates":[[[-103.368684,25.558536],[-103.3688,25.558851],[-103.35756,25.564797],[-103.357531,25.564569],[-103.357535,25.564434],[-103.368684,25.558536]]]}},{"type":"Feature","properties":{"capa":"comunal"},"geometry":{"type":"Polygon","coordinates":[[[-103.363234,25.561419],[-103.362833,25.560795],[-103.361973,25.56125],[-103.362374,25.561874],[-103.363234,25.561419]]]}},{"type":"Feature","properties":{"capa":"salon","nombre":"Salón (PB) y oficinas (PA)"},"geometry":{"type":"Polygon","coordinates":[[[-103.362718,25.561692],[-103.362593,25.561497],[-103.362249,25.561679],[-103.362374,25.561874],[-103.362718,25.561692]]]}},{"type":"Feature","properties":{"capa":"estacionamiento","nombre":"Estacionamiento"},"geometry":{"type":"Polygon","coordinates":[[[-103.362593,25.561497],[-103.362417,25.561224],[-103.362073,25.561406],[-103.362249,25.561679],[-103.362593,25.561497]]]}},{"type":"Feature","properties":{"capa":"tenis","nombre":"Tenis"},"geometry":{"type":"Polygon","coordinates":[[[-103.363116,25.56145],[-103.363015,25.561294],[-103.362671,25.561476],[-103.362772,25.561632],[-103.363116,25.56145]]]}},{"type":"Feature","properties":{"capa":"padel","nombre":"Pádel"},"geometry":{"type":"Polygon","coordinates":[[[-103.362731,25.561372],[-103.362621,25.5612],[-103.362526,25.56125],[-103.362636,25.561422],[-103.362731,25.561372]]]}},{"type":"Feature","properties":{"capa":"padel","nombre":"Pádel"},"geometry":{"type":"Polygon","coordinates":[[[-103.362843,25.561313],[-103.362732,25.561141],[-103.362638,25.561191],[-103.362748,25.561363],[-103.362843,25.561313]]]}},{"type":"Feature","properties":{"capa":"parque","nombre":"Parque 1"},"geometry":{"type":"Polygon","coordinates":[[[-103.360299,25.564288],[-103.359848,25.563586],[-103.360708,25.563132],[-103.361159,25.563833],[-103.360299,25.564288]]]}},{"type":"Feature","properties":{"capa":"parque","nombre":"Parque 2"},"geometry":{"type":"Polygon","coordinates":[[[-103.36508,25.560442],[-103.364629,25.55974],[-103.365489,25.559286],[-103.36594,25.559988],[-103.36508,25.560442]]]}}]}